{
  "type": "FeatureCollection",
  "features": [
    {
      "type": "Feature",
      "properties": {
        "norad_id": 41773,
        "name": "SKYSAT-C2",
        "group": "resource",
        "lat": -24.787503928406352,
        "lon": -162.6733218343248,
        "alt_km": 461.3312934748319,
        "timestamp": "2025-12-22T11:33:20.086832+00:00",
        "meta_object_name": "SKYSAT-C2",
        "meta_object_id": "2016-058D",
        "meta_epoch": "2025-12-21T23:43:58.697184",
        "meta_mean_motion": 15.3746531,
        "meta_eccentricity": 0.0003189,
        "meta_inclination": 97.0345,
        "meta_ra_of_asc_node": 20.1239,
        "meta_arg_of_pericenter": 7.6528,
        "meta_mean_anomaly": 352.4765,
        "meta_ephemeris_type": 0,
        "meta_classification_type": "U",
        "meta_norad_cat_id": 41773,
        "meta_element_set_no": 999,
        "meta_rev_at_epoch": 51778,
        "meta_bstar": 0.0003127,
        "meta_mean_motion_dot": 0.00011417,
        "meta_mean_motion_ddot": 0,
        "tle_line1": "1 41773U 16058D   25355.98887381  .00011417  00000+0  31270-3 0  9993",
        "tle_line2": "2 41773  97.0345  20.1239 0003189   7.6528 352.4765 15.37465310517783"
      },
      "geometry": {
        "type": "Point",
        "coordinates": [
          -162.6733218343248,
          -24.787503928406352
        ]
      }
    },
    {
      "type": "Feature",
      "properties": {
        "norad_id": 41774,
        "name": "SKYSAT-C3",
        "group": "resource",
        "lat": -73.44774177453448,
        "lon": 53.92730826554759,
        "alt_km": 440.9305889474981,
        "timestamp": "2025-12-22T11:33:20.086842+00:00",
        "meta_object_name": "SKYSAT-C3",
        "meta_object_id": "2016-058E",
        "meta_epoch": "2025-12-22T02:33:05.139072",
        "meta_mean_motion": 15.44711366,
        "meta_eccentricity": 0.0002057,
        "meta_inclination": 96.9285,
        "meta_ra_of_asc_node": 29.4174,
        "meta_arg_of_pericenter": 107.2334,
        "meta_mean_anomaly": 252.9141,
        "meta_ephemeris_type": 0,
        "meta_classification_type": "U",
        "meta_norad_cat_id": 41774,
        "meta_element_set_no": 999,
        "meta_rev_at_epoch": 51870,
        "meta_bstar": 0.0004243,
        "meta_mean_motion_dot": 0.00019752,
        "meta_mean_motion_ddot": 0,
        "tle_line1": "1 41774U 16058E   25356.10630948  .00019752  00000+0  42430-3 0  9994",
        "tle_line2": "2 41774  96.9285  29.4174 0002057 107.2334 252.9141 15.44711366518708"
      },
      "geometry": {
        "type": "Point",
        "coordinates": [
          53.92730826554759,
          -73.44774177453448
        ]
      }
    },
    {
      "type": "Feature",
      "properties": {
        "norad_id": 41785,
        "name": "ALSAT 1B",
        "group": "resource",
        "lat": 53.214924416462836,
        "lon": -161.61257222320623,
        "alt_km": 644.5646517706218,
        "timestamp": "2025-12-22T11:33:20.086853+00:00",
        "meta_object_name": "ALSAT 1B",
        "meta_object_id": "2016-059C",
        "meta_epoch": "2025-12-22T04:27:38.888064",
        "meta_mean_motion": 14.720829,
        "meta_eccentricity": 0.0010796,
        "meta_inclination": 97.7805,
        "meta_ra_of_asc_node": 7.5678,
        "meta_arg_of_pericenter": 76.8835,
        "meta_mean_anomaly": 283.3577,
        "meta_ephemeris_type": 0,
        "meta_classification_type": "U",
        "meta_norad_cat_id": 41785,
        "meta_element_set_no": 999,
        "meta_rev_at_epoch": 49453,
        "meta_bstar": -5.5857e-06,
        "meta_mean_motion_dot": -8.2e-07,
        "meta_mean_motion_ddot": 0,
        "tle_line1": "1 41785U 16059C   25356.18586676 -.00000082  00000+0 -55857-5 0  9990",
        "tle_line2": "2 41785  97.7805   7.5678 0010796  76.8835 283.3577 14.72082900494539"
      },
      "geometry": {
        "type": "Point",
        "coordinates": [
          -161.61257222320623,
          53.214924416462836
        ]
      }
    },
    {
      "type": "Feature",
      "properties": {
        "norad_id": 41787,
        "name": "PATHFINDER 1",
        "group": "resource",
        "lat": 37.56429328890143,
        "lon": -7.259329514754038,
        "alt_km": 646.4445238363842,
        "timestamp": "2025-12-22T11:33:20.086863+00:00",
        "meta_object_name": "PATHFINDER 1",
        "meta_object_id": "2016-059E",
        "meta_epoch": "2025-12-21T22:17:28.027968",
        "meta_mean_motion": 14.67336641,
        "meta_eccentricity": 0.0029774,
        "meta_inclination": 97.8136,
        "meta_ra_of_asc_node": 358.276,
        "meta_arg_of_pericenter": 53.198,
        "meta_mean_anomaly": 307.1951,
        "meta_ephemeris_type": 0,
        "meta_classification_type": "U",
        "meta_norad_cat_id": 41787,
        "meta_element_set_no": 999,
        "meta_rev_at_epoch": 49371,
        "meta_bstar": 0.0001383,
        "meta_mean_motion_dot": 7.39e-06,
        "meta_mean_motion_ddot": 0,
        "tle_line1": "1 41787U 16059E   25355.92879662  .00000739  00000+0  13830-3 0  9993",
        "tle_line2": "2 41787  97.8136 358.2760 0029774  53.1980 307.1951 14.67336641493710"
      },
      "geometry": {
        "type": "Point",
        "coordinates": [
          -7.259329514754038,
          37.56429328890143
        ]
      }
    },
    {
      "type": "Feature",
      "properties": {
        "norad_id": 41790,
        "name": "SCATSAT 1",
        "group": "resource",
        "lat": 75.37789759366255,
        "lon": 19.977404476806957,
        "alt_km": 588.0571055802175,
        "timestamp": "2025-12-22T11:33:20.086873+00:00",
        "meta_object_name": "SCATSAT 1",
        "meta_object_id": "2016-059H",
        "meta_epoch": "2025-12-21T17:20:44.941632",
        "meta_mean_motion": 14.7896339,
        "meta_eccentricity": 0.0056471,
        "meta_inclination": 98.145,
        "meta_ra_of_asc_node": 52.5048,
        "meta_arg_of_pericenter": 99.6908,
        "meta_mean_anomaly": 261.0688,
        "meta_ephemeris_type": 0,
        "meta_classification_type": "U",
        "meta_norad_cat_id": 41790,
        "meta_element_set_no": 999,
        "meta_rev_at_epoch": 7535,
        "meta_bstar": 0.00015689,
        "meta_mean_motion_dot": 1.132e-05,
        "meta_mean_motion_ddot": 0,
        "tle_line1": "1 41790U 16059H   25355.72274238  .00001132  00000+0  15689-3 0  9995",
        "tle_line2": "2 41790  98.1450  52.5048 0056471  99.6908 261.0688 14.78963390 75359"
      },
      "geometry": {
        "type": "Point",
        "coordinates": [
          19.977404476806957,
          75.37789759366255
        ]
      }
    },
    {
      "type": "Feature",
      "properties": {
        "norad_id": 41875,
        "name": "GOKTURK 1A",
        "group": "resource",
        "lat": -43.11088801669481,
        "lon": -103.5798965330448,
        "alt_km": 691.351355821801,
        "timestamp": "2025-12-22T11:33:20.086883+00:00",
        "meta_object_name": "GOKTURK 1A",
        "meta_object_id": "2016-073A",
        "meta_epoch": "2025-12-22T05:11:17.169216",
        "meta_mean_motion": 14.62789966,
        "meta_eccentricity": 0.0001302,
        "meta_inclination": 98.1433,
        "meta_ra_of_asc_node": 248.4551,
        "meta_arg_of_pericenter": 81.7948,
        "meta_mean_anomaly": 278.3401,
        "meta_ephemeris_type": 0,
        "meta_classification_type": "U",
        "meta_norad_cat_id": 41875,
        "meta_element_set_no": 999,
        "meta_rev_at_epoch": 48295,
        "meta_bstar": 0.00011704,
        "meta_mean_motion_dot": 5.5e-06,
        "meta_mean_motion_ddot": 0,
        "tle_line1": "1 41875U 16073A   25356.21617094  .00000550  00000+0  11704-3 0  9998",
        "tle_line2": "2 41875  98.1433 248.4551 0001302  81.7948 278.3401 14.62789966482958"
      },
      "geometry": {
        "type": "Point",
        "coordinates": [
          -103.5798965330448,
          -43.11088801669481
        ]
      }
    },
    {
      "type": "Feature",
      "properties": {
        "norad_id": 41877,
        "name": "RESOURCESAT-2A",
        "group": "resource",
        "lat": 3.3360262064985036,
        "lon": 65.7648186954554,
        "alt_km": 823.3739432166467,
        "timestamp": "2025-12-22T11:33:20.086894+00:00",
        "meta_object_name": "RESOURCESAT-2A",
        "meta_object_id": "2016-074A",
        "meta_epoch": "2025-12-22T04:46:58.770048",
        "meta_mean_motion": 14.21602545,
        "meta_eccentricity": 0.0001501,
        "meta_inclination": 98.7749,
        "meta_ra_of_asc_node": 66.0002,
        "meta_arg_of_pericenter": 210.8293,
        "meta_mean_anomaly": 149.2796,
        "meta_ephemeris_type": 0,
        "meta_classification_type": "U",
        "meta_norad_cat_id": 41877,
        "meta_element_set_no": 999,
        "meta_rev_at_epoch": 46915,
        "meta_bstar": -4.1784e-06,
        "meta_mean_motion_dot": -5.4e-07,
        "meta_mean_motion_ddot": 0,
        "tle_line1": "1 41877U 16074A   25356.19929132 -.00000054  00000+0 -41784-5 0  9991",
        "tle_line2": "2 41877  98.7749  66.0002 0001501 210.8293 149.2796 14.21602545469152"
      },
      "geometry": {
        "type": "Point",
        "coordinates": [
          65.7648186954554,
          3.3360262064985036
        ]
      }
    }
  ]
}